[{"OBJECT_NAME":"STARLINK-34938","OBJECT_ID":"2025-179B","EPOCH":"2026-03-09T15:58:21.453312","MEAN_MOTION":15.05653933,"ECCENTRICITY":0.00014446,"INCLINATION":97.604,"RA_OF_ASC_NODE":112.923,"ARG_OF_PERICENTER":92.9274,"MEAN_ANOMALY":267.2118,"EPHEMERIS_TYPE":0,"CLASSIFICATION_TYPE":"U","NORAD_CAT_ID":65236,"ELEMENT_SET_NO":999,"REV_AT_EPOCH":3186,"BSTAR":0.00017641376,"MEAN_MOTION_DOT":2.486e-5,"MEAN_MOTION_DDOT":0},{"OBJECT_NAME":"DEORBITSAIL","OBJECT_ID":"2015-032E","EPOCH":"2026-03-09T13:39:47.460384","MEAN_MOTION":15.02284863,"ECCENTRICITY":0.0012066,"INCLINATION":97.5981,"RA_OF_ASC_NODE":287.3228,"ARG_OF_PERICENTER":211.0438,"MEAN_ANOMALY":149.0075,"EPHEMERIS_TYPE":0,"CLASSIFICATION_TYPE":"U","NORAD_CAT_ID":40719,"ELEMENT_SET_NO":999,"REV_AT_EPOCH":57628,"BSTAR":0.0007398,"MEAN_MOTION_DOT":9.73e-5,"MEAN_MOTION_DDOT":0}]
